{"type":"FeatureCollection","name":"land_clipped_60E-100E_0N-25N","attribution":"Made with Natural Earth (public domain), ne_50m_land, clipped to project region","features":[{"type":"Feature","properties":{},"geometry":{"type":"Polygon","coordinates":[[[96.615,5.220],[96.842,5.274],[97.190,5.207],[97.451,5.236],[97.547,5.205],[97.908,4.879],[97.999,4.662],[98.248,4.414],[98.273,4.322],[98.241,4.194],[98.307,4.092],[98.658,3.928],[98.777,3.759],[99.151,3.581],[99.732,3.183],[99.969,2.894],[100.0,2.835],[100.0,0.0],[99.699,0.0],[99.597,0.102],[99.334,0.208],[99.159,0.351],[98.796,1.494],[98.595,1.864],[98.086,2.195],[97.795,2.282],[97.700,2.358],[97.590,2.846],[97.391,2.975],[96.968,3.575],[96.800,3.708],[96.525,3.766],[96.444,3.816],[96.230,4.072],[95.987,4.263],[95.578,4.661],[95.431,4.865],[95.206,5.284],[95.247,5.410],[95.227,5.564],[95.396,5.628],[95.628,5.609],[95.841,5.514],[96.133,5.294],[96.615,5.220]]]}},{"type":"Feature","properties":{},"geometry":{"type":"Polygon","coordinates":[[[79.982,9.812],[80.252,9.796],[80.375,9.642],[80.711,9.366],[80.935,8.971],[81.016,8.932],[81.198,8.661],[81.226,8.505],[81.372,8.431],[81.422,8.147],[81.665,7.782],[81.682,7.684],[81.832,7.428],[81.874,7.288],[81.861,6.901],[81.767,6.614],[81.637,6.425],[81.306,6.203],[80.724,5.979],[80.495,5.949],[80.267,6.009],[80.095,6.153],[79.859,6.829],[79.712,8.182],[79.749,8.294],[79.749,8.048],[79.783,8.018],[79.850,8.411],[79.941,8.691],[79.928,8.899],[80.064,9.095],[80.099,9.209],[80.118,9.326],[80.086,9.577],[80.317,9.465],[80.428,9.480],[80.385,9.548],[80.257,9.611],[80.045,9.649],[79.979,9.699],[79.954,9.742],[79.982,9.812]]]}},{"type":"Feature","properties":{},"geometry":{"type":"Polygon","coordinates":[[[97.698,1.183],[97.786,1.145],[97.931,0.973],[97.876,0.628],[97.820,0.564],[97.683,0.596],[97.603,0.833],[97.461,0.941],[97.405,0.946],[97.296,1.187],[97.079,1.425],[97.244,1.423],[97.355,1.539],[97.481,1.465],[97.698,1.183]]]}},{"type":"Feature","properties":{},"geometry":{"type":"Polygon","coordinates":[[[98.374,0.007],[98.386,0.0],[98.328,0.0],[98.374,0.007]]]}},{"type":"Feature","properties":{},"geometry":{"type":"Polygon","coordinates":[[[97.328,2.053],[97.225,2.158],[97.108,2.216],[97.291,2.200],[97.328,2.148],[97.328,2.053]]]}},{"type":"Feature","properties":{},"geometry":{"type":"Polygon","coordinates":[[[96.400,2.350],[96.021,2.595],[95.808,2.655],[95.717,2.825],[95.806,2.916],[95.895,2.889],[95.997,2.781],[96.101,2.741],[96.417,2.515],[96.463,2.360],[96.400,2.350]]]}},{"type":"Feature","properties":{},"geometry":{"type":"Polygon","coordinates":[[[95.342,5.784],[95.283,5.798],[95.217,5.889],[95.359,5.876],[95.342,5.784]]]}},{"type":"Feature","properties":{},"geometry":{"type":"Polygon","coordinates":[[[99.918,6.358],[99.865,6.297],[99.823,6.312],[99.743,6.263],[99.646,6.418],[99.749,6.409],[99.848,6.465],[99.918,6.358]]]}},{"type":"Feature","properties":{},"geometry":{"type":"Polygon","coordinates":[[[99.644,6.516],[99.606,6.596],[99.654,6.714],[99.701,6.570],[99.644,6.516]]]}},{"type":"Feature","properties":{},"geometry":{"type":"Polygon","coordinates":[[[99.998,9.747],[99.983,9.793],[100.0,9.793],[99.998,9.747]]]}},{"type":"Feature","properties":{},"geometry":{"type":"Polygon","coordinates":[[[99.962,9.421],[99.931,9.476],[99.939,9.559],[100.0,9.578],[100.0,9.438],[99.962,9.421]]]}},{"type":"Feature","properties":{},"geometry":{"type":"Polygon","coordinates":[[[98.579,7.917],[98.529,8.108],[98.604,8.057],[98.579,7.917]]]}},{"type":"Feature","properties":{},"geometry":{"type":"Polygon","coordinates":[[[98.398,7.828],[98.296,7.776],[98.262,7.926],[98.322,8.166],[98.350,8.110],[98.434,8.085],[98.398,7.828]]]}},{"type":"Feature","properties":{},"geometry":{"type":"Polygon","coordinates":[[[98.250,9.040],[98.273,9.129],[98.301,9.139],[98.307,9.051],[98.250,9.040]]]}},{"type":"Feature","properties":{},"geometry":{"type":"Polygon","coordinates":[[[93.828,6.748],[93.709,7.000],[93.658,7.016],[93.656,7.136],[93.684,7.183],[93.822,7.236],[93.858,7.206],[93.929,6.973],[93.890,6.831],[93.828,6.748]]]}},{"type":"Feature","properties":{},"geometry":{"type":"Polygon","coordinates":[[[93.638,7.261],[93.597,7.318],[93.692,7.410],[93.733,7.356],[93.638,7.261]]]}},{"type":"Feature","properties":{},"geometry":{"type":"Polygon","coordinates":[[[93.170,8.212],[93.115,8.218],[93.064,8.274],[93.096,8.349],[93.170,8.212]]]}},{"type":"Feature","properties":{},"geometry":{"type":"Polygon","coordinates":[[[93.365,7.876],[93.309,7.964],[93.375,8.017],[93.447,7.899],[93.365,7.876]]]}},{"type":"Feature","properties":{},"geometry":{"type":"Polygon","coordinates":[[[93.490,8.019],[93.456,8.171],[93.494,8.224],[93.531,8.213],[93.511,8.159],[93.536,8.056],[93.490,8.019]]]}},{"type":"Feature","properties":{},"geometry":{"type":"Polygon","coordinates":[[[92.743,9.130],[92.713,9.204],[92.785,9.240],[92.809,9.173],[92.743,9.130]]]}},{"type":"Feature","properties":{},"geometry":{"type":"Polygon","coordinates":[[[92.472,10.520],[92.369,10.547],[92.352,10.751],[92.510,10.897],[92.574,10.704],[92.472,10.520]]]}},{"type":"Feature","properties":{},"geometry":{"type":"Polygon","coordinates":[[[92.644,11.361],[92.595,11.386],[92.633,11.426],[92.640,11.509],[92.690,11.463],[92.693,11.381],[92.644,11.361]]]}},{"type":"Feature","properties":{},"geometry":{"type":"Polygon","coordinates":[[[93.062,11.899],[92.981,11.959],[92.955,12.002],[93.017,12.036],[93.062,11.899]]]}},{"type":"Feature","properties":{},"geometry":{"type":"Polygon","coordinates":[[[92.685,12.799],[92.679,12.939],[92.710,12.961],[92.730,12.948],[92.685,12.799]]]}},{"type":"Feature","properties":{},"geometry":{"type":"Polygon","coordinates":[[[92.700,11.512],[92.575,11.718],[92.533,11.873],[92.607,11.949],[92.676,12.192],[92.788,12.225],[92.777,12.302],[92.718,12.357],[92.720,12.541],[92.759,12.669],[92.740,12.779],[92.807,12.878],[92.830,13.002],[92.808,13.039],[92.860,13.230],[92.857,13.358],[92.924,13.485],[93.062,13.545],[93.076,13.400],[93.016,13.336],[93.066,13.221],[92.886,12.942],[92.965,12.850],[92.990,12.538],[92.932,12.453],[92.863,12.436],[92.879,12.227],[92.747,11.992],[92.797,11.874],[92.764,11.639],[92.700,11.512]]]}},{"type":"Feature","properties":{},"geometry":{"type":"Polygon","coordinates":[[[98.541,10.961],[98.477,10.979],[98.526,11.086],[98.541,10.961]]]}},{"type":"Feature","properties":{},"geometry":{"type":"Polygon","coordinates":[[[98.293,10.779],[98.251,10.744],[98.218,10.837],[98.155,10.897],[98.080,10.886],[98.167,10.980],[98.209,10.952],[98.293,10.779]]]}},{"type":"Feature","properties":{},"geometry":{"type":"Polygon","coordinates":[[[98.134,9.875],[98.140,9.974],[98.220,10.045],[98.291,10.051],[98.283,10.007],[98.134,9.875]]]}},{"type":"Feature","properties":{},"geometry":{"type":"Polygon","coordinates":[[[98.216,11.455],[98.187,11.472],[98.201,11.567],[98.299,11.783],[98.283,11.594],[98.216,11.455]]]}},{"type":"Feature","properties":{},"geometry":{"type":"Polygon","coordinates":[[[98.474,11.899],[98.454,12.061],[98.466,12.084],[98.609,11.956],[98.474,11.899]]]}},{"type":"Feature","properties":{},"geometry":{"type":"Polygon","coordinates":[[[98.083,11.636],[98.021,11.695],[98.010,11.860],[98.080,11.733],[98.083,11.636]]]}},{"type":"Feature","properties":{},"geometry":{"type":"Polygon","coordinates":[[[98.528,11.538],[98.434,11.567],[98.376,11.791],[98.523,11.804],[98.553,11.744],[98.528,11.538]]]}},{"type":"Feature","properties":{},"geometry":{"type":"Polygon","coordinates":[[[98.125,12.144],[98.075,12.164],[98.037,12.232],[98.071,12.291],[98.122,12.278],[98.125,12.144]]]}},{"type":"Feature","properties":{},"geometry":{"type":"Polygon","coordinates":[[[98.059,12.397],[98.002,12.279],[97.938,12.346],[97.990,12.393],[98.059,12.397]]]}},{"type":"Feature","properties":{},"geometry":{"type":"Polygon","coordinates":[[[98.436,12.570],[98.468,12.571],[98.459,12.473],[98.380,12.353],[98.313,12.335],[98.312,12.678],[98.396,12.647],[98.436,12.570]]]}},{"type":"Feature","properties":{},"geometry":{"type":"Polygon","coordinates":[[[98.309,12.934],[98.259,13.014],[98.265,13.202],[98.315,13.099],[98.309,12.934]]]}},{"type":"Feature","properties":{},"geometry":{"type":"Polygon","coordinates":[[[97.537,16.240],[97.480,16.305],[97.469,16.461],[97.541,16.505],[97.599,16.429],[97.575,16.253],[97.537,16.240]]]}},{"type":"Feature","properties":{},"geometry":{"type":"Polygon","coordinates":[[[99.104,7.471],[99.037,7.548],[99.045,7.636],[99.078,7.591],[99.104,7.471]]]}},{"type":"Feature","properties":{},"geometry":{"type":"Polygon","coordinates":[[[94.784,15.793],[94.733,15.823],[94.828,15.933],[94.838,15.892],[94.784,15.793]]]}},{"type":"Feature","properties":{},"geometry":{"type":"Polygon","coordinates":[[[94.411,15.848],[94.387,15.994],[94.601,16.205],[94.618,16.141],[94.566,16.019],[94.411,15.848]]]}},{"type":"Feature","properties":{},"geometry":{"type":"Polygon","coordinates":[[[93.674,18.675],[93.569,18.759],[93.487,18.867],[93.618,18.888],[93.744,18.865],[93.718,18.715],[93.674,18.675]]]}},{"type":"Feature","properties":{},"geometry":{"type":"Polygon","coordinates":[[[93.513,19.754],[93.444,19.806],[93.412,19.950],[93.491,19.892],[93.513,19.754]]]}},{"type":"Feature","properties":{},"geometry":{"type":"Polygon","coordinates":[[[93.023,19.828],[92.912,19.999],[92.914,20.086],[92.959,20.046],[93.023,19.828]]]}},{"type":"Feature","properties":{},"geometry":{"type":"Polygon","coordinates":[[[93.829,19.475],[93.874,19.481],[93.947,19.408],[93.901,19.332],[93.815,19.298],[93.755,19.325],[93.732,19.416],[93.644,19.495],[93.714,19.558],[93.829,19.475]]]}},{"type":"Feature","properties":{},"geometry":{"type":"Polygon","coordinates":[[[91.837,21.750],[91.819,21.809],[91.861,21.926],[91.882,21.883],[91.837,21.750]]]}},{"type":"Feature","properties":{},"geometry":{"type":"Polygon","coordinates":[[[91.888,21.503],[91.859,21.532],[91.857,21.708],[91.933,21.722],[91.949,21.508],[91.888,21.503]]]}},{"type":"Feature","properties":{},"geometry":{"type":"Polygon","coordinates":[[[91.044,22.105],[91.079,22.519],[91.178,22.283],[91.150,22.175],[91.044,22.105]]]}},{"type":"Feature","properties":{},"geometry":{"type":"Polygon","coordinates":[[[91.510,22.352],[91.411,22.475],[91.456,22.616],[91.548,22.425],[91.556,22.382],[91.510,22.352]]]}},{"type":"Feature","properties":{},"geometry":{"type":"Polygon","coordinates":[[[90.659,22.920],[90.562,22.975],[90.536,23.014],[90.579,23.035],[90.659,22.920]]]}},{"type":"Feature","properties":{},"geometry":{"type":"Polygon","coordinates":[[[90.777,22.089],[90.515,22.065],[90.680,22.327],[90.674,22.444],[90.649,22.540],[90.564,22.617],[90.502,22.835],[90.596,22.863],[90.672,22.813],[90.736,22.638],[90.868,22.484],[90.829,22.159],[90.777,22.089]]]}},{"type":"Feature","properties":{},"geometry":{"type":"Polygon","coordinates":[[[79.906,9.619],[79.845,9.714],[79.872,9.744],[79.969,9.630],[79.906,9.619]]]}},{"type":"Feature","properties":{},"geometry":{"type":"Polygon","coordinates":[[[79.903,8.975],[79.766,9.069],[79.747,9.104],[79.859,9.065],[79.903,8.975]]]}},{"type":"Feature","properties":{},"geometry":{"type":"Polygon","coordinates":[[[100.0,25.0],[100.0,12.817],[99.963,12.690],[100.0,12.400],[99.989,12.170],[99.837,11.936],[99.798,11.748],[99.627,11.462],[99.514,11.100],[99.486,10.889],[99.284,10.569],[99.237,10.388],[99.165,10.319],[99.194,10.175],[99.160,9.734],[99.288,9.414],[99.253,9.265],[99.393,9.213],[99.723,9.314],[99.835,9.288],[99.904,9.112],[99.960,8.671],[100.0,8.576],[100.0,6.588],[99.868,6.749],[99.695,6.876],[99.720,7.106],[99.667,7.150],[99.602,7.155],[99.553,7.218],[99.596,7.355],[99.435,7.334],[99.358,7.372],[99.263,7.619],[99.183,7.718],[99.077,7.718],[99.042,7.765],[99.051,7.887],[98.973,7.962],[98.788,8.059],[98.703,8.256],[98.579,8.344],[98.499,8.317],[98.420,8.178],[98.360,8.186],[98.305,8.226],[98.238,8.423],[98.241,8.767],[98.325,8.968],[98.371,9.290],[98.492,9.561],[98.561,9.837],[98.702,10.190],[98.658,10.179],[98.562,10.034],[98.496,10.182],[98.523,10.353],[98.464,10.675],[98.535,10.740],[98.675,10.986],[98.682,11.133],[98.744,11.240],[98.741,11.591],[98.875,11.719],[98.804,11.779],[98.693,11.718],[98.636,11.738],[98.644,11.910],[98.689,11.956],[98.663,12.126],[98.696,12.225],[98.600,12.245],[98.678,12.348],[98.624,12.440],[98.664,12.539],[98.663,12.662],[98.575,13.161],[98.487,13.293],[98.421,13.483],[98.245,13.733],[98.238,13.934],[98.200,13.980],[98.149,13.647],[98.110,13.712],[98.072,13.986],[98.100,14.161],[97.998,14.335],[97.909,14.652],[97.929,14.695],[98.018,14.652],[97.936,14.763],[97.869,14.738],[97.812,14.858],[97.799,15.184],[97.743,15.306],[97.774,15.430],[97.710,15.875],[97.584,16.019],[97.640,16.253],[97.633,16.457],[97.725,16.568],[97.375,16.522],[97.211,16.892],[97.178,17.062],[97.200,17.095],[96.851,17.401],[96.909,17.304],[96.850,17.202],[96.908,17.030],[96.765,16.710],[96.622,16.563],[96.431,16.504],[96.364,16.520],[96.282,16.595],[96.248,16.765],[96.189,16.768],[96.236,16.567],[96.324,16.444],[96.135,16.342],[96.042,16.339],[96.012,16.253],[95.763,16.169],[95.679,15.976],[95.555,15.837],[95.389,15.722],[95.301,15.756],[95.307,15.880],[95.364,15.985],[95.346,16.097],[95.333,16.033],[95.176,15.825],[94.942,15.818],[94.891,15.979],[94.893,16.182],[94.798,15.971],[94.661,15.904],[94.651,16.064],[94.719,16.398],[94.703,16.511],[94.665,16.336],[94.587,16.288],[94.441,16.094],[94.299,16.007],[94.223,16.016],[94.271,16.517],[94.353,16.639],[94.4,16.868],[94.452,16.954],[94.473,17.135],[94.564,17.308],[94.588,17.569],[94.494,17.824],[94.430,18.201],[94.170,18.732],[94.245,18.741],[94.070,18.893],[94.044,19.287],[94.001,19.181],[93.941,19.146],[93.968,18.995],[93.929,18.899],[93.705,19.026],[93.493,19.369],[93.578,19.401],[93.728,19.266],[93.824,19.238],[93.962,19.329],[93.998,19.440],[93.839,19.534],[93.739,19.697],[93.611,19.776],[93.707,19.912],[93.581,19.909],[93.409,20.038],[93.25,20.070],[93.156,20.040],[93.199,19.898],[93.190,19.851],[93.129,19.858],[93.001,20.074],[93.095,20.181],[93.015,20.185],[93.066,20.377],[93.035,20.406],[92.990,20.287],[92.882,20.152],[92.828,20.177],[92.791,20.211],[92.891,20.340],[92.735,20.562],[92.708,20.563],[92.722,20.295],[92.608,20.469],[92.307,20.790],[92.056,21.174],[92.008,21.684],[91.913,21.883],[91.824,22.228],[91.863,22.350],[91.797,22.297],[91.692,22.504],[91.529,22.707],[91.482,22.797],[91.480,22.884],[91.216,22.642],[90.945,22.597],[90.826,22.721],[90.656,23.025],[90.633,23.094],[90.656,23.273],[90.604,23.591],[90.561,23.537],[90.555,23.421],[90.269,23.455],[90.391,23.366],[90.522,23.346],[90.590,23.266],[90.595,23.133],[90.466,23.053],[90.477,22.986],[90.552,22.904],[90.461,22.881],[90.435,22.751],[90.498,22.634],[90.487,22.588],[90.616,22.362],[90.589,22.258],[90.355,22.048],[90.230,21.829],[90.158,21.816],[90.071,21.887],[90.087,22.017],[90.209,22.156],[89.954,22.022],[89.918,22.116],[89.893,22.308],[89.985,22.466],[89.881,22.387],[89.852,22.090],[89.811,21.983],[89.568,21.767],[89.483,22.275],[89.500,21.914],[89.353,21.721],[89.234,21.722],[89.093,21.872],[89.051,22.093],[89.027,21.937],[88.949,21.937],[89.019,21.833],[89.051,21.654],[88.907,21.653],[88.857,21.744],[88.834,21.661],[88.745,21.584],[88.694,21.662],[88.691,21.733],[88.740,22.005],[88.708,22.056],[88.659,22.066],[88.641,22.121],[88.566,21.832],[88.599,21.713],[88.584,21.659],[88.445,21.614],[88.287,21.758],[88.253,21.622],[88.122,21.635],[88.056,21.694],[88.196,22.139],[87.994,22.265],[87.941,22.374],[87.961,22.255],[88.159,22.121],[87.948,21.825],[87.678,21.653],[87.100,21.500],[86.859,21.236],[86.842,21.106],[86.939,20.745],[86.975,20.700],[86.762,20.419],[86.750,20.313],[86.498,20.171],[86.376,20.006],[86.245,20.053],[86.311,19.987],[86.279,19.919],[86.216,19.895],[85.575,19.692],[85.496,19.696],[85.559,19.753],[85.555,19.866],[85.504,19.887],[85.459,19.895],[85.248,19.757],[85.162,19.620],[85.180,19.594],[85.370,19.678],[85.436,19.656],[85.441,19.626],[85.225,19.508],[84.770,19.125],[84.690,18.964],[84.104,18.292],[83.654,18.069],[83.198,17.608],[82.976,17.461],[82.593,17.273],[82.359,17.096],[82.281,16.936],[82.359,16.782],[82.258,16.559],[81.761,16.329],[81.401,16.365],[81.286,16.337],[81.132,15.961],[81.030,15.881],[80.978,15.758],[80.825,15.765],[80.781,15.867],[80.646,15.895],[80.384,15.792],[80.293,15.710],[80.101,15.323],[80.053,15.074],[80.178,14.478],[80.170,14.349],[80.111,14.212],[80.306,13.485],[80.156,13.713],[80.062,13.606],[80.114,13.528],[80.290,13.436],[80.342,13.361],[80.229,12.690],[80.143,12.452],[79.981,12.235],[79.858,11.988],[79.754,11.575],[79.793,11.446],[79.693,11.312],[79.799,11.338],[79.848,11.196],[79.838,10.322],[79.667,10.299],[79.531,10.329],[79.390,10.305],[79.314,10.256],[79.253,10.174],[79.257,10.035],[78.996,9.683],[78.919,9.452],[79.019,9.333],[79.275,9.284],[79.411,9.192],[79.212,9.256],[78.979,9.268],[78.421,9.105],[78.192,8.890],[78.126,8.511],[78.060,8.384],[77.770,8.189],[77.517,8.078],[77.301,8.145],[76.966,8.407],[76.553,8.902],[76.471,9.160],[76.403,9.236],[76.324,9.452],[76.242,9.927],[76.343,9.827],[76.375,9.539],[76.458,9.536],[76.346,9.922],[76.222,10.024],[76.195,10.086],[76.201,10.200],[75.922,10.784],[75.723,11.361],[75.524,11.703],[75.196,12.057],[74.945,12.564],[74.770,13.077],[74.670,13.667],[74.498,14.046],[74.382,14.494],[73.949,15.074],[73.884,15.306],[73.800,15.396],[73.931,15.396],[73.771,15.573],[73.832,15.659],[73.732,15.656],[73.679,15.708],[73.607,15.871],[73.476,16.054],[73.337,16.459],[73.239,17.198],[73.149,17.527],[73.156,17.621],[72.993,18.097],[72.917,18.576],[72.875,18.642],[72.898,18.778],[73.005,19.021],[72.972,19.153],[72.900,19.014],[72.834,18.975],[72.803,19.079],[72.811,19.298],[72.987,19.277],[72.787,19.362],[72.756,19.450],[72.799,19.519],[72.726,19.578],[72.667,19.830],[72.708,20.078],[72.881,20.563],[72.893,20.672],[72.813,21.117],[72.692,21.177],[72.623,21.371],[72.734,21.470],[72.613,21.461],[72.810,21.619],[73.112,21.750],[72.839,21.687],[72.543,21.696],[72.592,21.877],[72.700,21.971],[72.522,21.976],[72.553,22.159],[72.809,22.233],[72.590,22.278],[72.455,22.248],[72.182,22.269],[72.306,22.189],[72.274,22.089],[72.244,22.027],[72.094,21.919],[72.037,21.823],[72.170,21.774],[72.210,21.728],[72.256,21.661],[72.254,21.531],[72.015,21.155],[71.396,20.869],[71.024,20.738],[70.879,20.714],[70.719,20.740],[70.485,20.840],[70.034,21.178],[69.748,21.505],[69.191,21.991],[69.008,22.196],[68.969,22.290],[68.983,22.385],[69.051,22.437],[69.131,22.416],[69.276,22.285],[69.549,22.408],[69.655,22.403],[69.727,22.465],[69.819,22.451],[70.005,22.547],[70.177,22.572],[70.440,22.970],[70.513,23.002],[70.489,23.089],[70.434,23.077],[70.339,22.939],[70.251,22.970],[70.118,22.947],[69.664,22.759],[69.235,22.848],[68.817,23.053],[68.640,23.189],[68.417,23.571],[68.453,23.629],[68.776,23.852],[68.496,23.747],[68.343,23.616],[68.234,23.596],[68.165,23.857],[68.115,23.753],[68.037,23.848],[67.950,23.828],[67.859,23.902],[67.819,23.828],[67.668,23.810],[67.645,23.919],[67.563,23.881],[67.476,24.018],[67.365,24.091],[67.309,24.174],[67.288,24.367],[67.171,24.756],[66.703,24.860],[66.693,25.0],[100.0,25.0]]]}},{"type":"Feature","properties":{},"geometry":{"type":"Polygon","coordinates":[[[72.787,11.215],[72.772,11.214],[72.792,11.262],[72.787,11.215]]]}},{"type":"Feature","properties":{},"geometry":{"type":"Polygon","coordinates":[[[73.079,8.316],[73.028,8.253],[73.026,8.275],[73.079,8.316]]]}},{"type":"Feature","properties":{},"geometry":{"type":"Polygon","coordinates":[[[73.395,3.229],[73.384,3.271],[73.427,3.289],[73.434,3.250],[73.395,3.229]]]}},{"type":"Feature","properties":{},"geometry":{"type":"Polygon","coordinates":[[[73.494,4.155],[73.473,4.170],[73.517,4.247],[73.519,4.186],[73.494,4.155]]]}}]}